STARLINK-36370          
1 67937U 26037F   26067.91668981  .00237066  00000+0  11031-2 0  9990
2 67937  42.9990 203.2741 0001838 271.3930 289.4523 15.81912621  3070
STARLINK-36371          
1 67938U 26037G   26067.91668981 -.00023225  00000+0 -10798-3 0  9993
2 67938  42.9989 203.2513 0001555 275.9914 293.3916 15.82030816  3072
STARLINK-36246          
1 67939U 26037H   26067.91668981 -.00076261  00000+0 -36191-3 0  9997
2 67939  42.9990 203.2410 0002264 290.9329 282.6911 15.82066373  2988
STARLINK-36907          
1 67940U 26037J   26067.91668981 -.00669554  00000+0 -33525-2 0  9999
2 67940  42.9989 203.2082 0001471 282.4830 303.7248 15.82500667  3073
STARLINK-36927          
1 67941U 26037K   26067.91668981 -.01109414  00000+0 -56288-2 0  9996
2 67941  42.9990 203.1874 0001558 286.6551 307.8267 15.82895367  3076
STARLINK-36914          
1 67942U 26037L   26067.91668981 -.00155374  00000+0 -74500-3 0  9990
2 67942  42.9989 203.2297 0002232 285.7294 292.1425 15.82116186  3076
STARLINK-36851          
1 67943U 26037M   26067.91668981 -.00417188  00000+0 -20481-2 0  9993
2 67943  42.9989 203.2192 0001728 294.0524 288.0058 15.82297834  3075
STARLINK-36892          
1 67944U 26037N   26067.91668981 -.00898525  00000+0 -45777-2 0  9997
2 67944  42.9989 203.1986 0001357 285.4543 304.8999 15.82699629  3078
STARLINK-36908          
1 67945U 26037P   26067.91668981 -.01147246  00000+0 -58322-2 0  9996
2 67945  42.9989 203.1769 0001723 288.6015 310.1251 15.82933044  3077
STARLINK-36909          
1 67946U 26037Q   26067.91668981 -.01370870  00000+0 -70367-2 0  9991
2 67946  42.9988 203.1670 0001368 279.2898 323.4442 15.83225619  3070
STARLINK-36920          
1 67947U 26037R   26067.91668981 -.01512006  00000+0 -76461-2 0  9992
2 67947  42.9991 203.1563 0001326 283.8237 323.0794 15.83346559  3071
STARLINK-36873          
1 67948U 26037S   26067.91668981 -.01588556  00000+0 -80186-2 0  9995
2 67948  42.9990 203.1461 0001386 276.4430 334.5096 15.83527883  3070
