CCSDS_OMM_VERS = 2.0
CREATION_DATE  = 
ORIGINATOR     = 

OBJECT_NAME    = STARLINK-36370
OBJECT_ID      = 2026-037F
CENTER_NAME    = EARTH
REF_FRAME      = TEME
TIME_SYSTEM    = UTC
MEAN_ELEMENT_THEORY = SGP/SGP4

EPOCH          = 2026-03-08T22:00:01.999584
MEAN_MOTION    = 15.81912621
ECCENTRICITY   = .0001838
INCLINATION    = 42.9990
RA_OF_ASC_NODE = 203.2741
ARG_OF_PERICENTER = 271.3930
MEAN_ANOMALY   = 289.4523

EPHEMERIS_TYPE = 0
CLASSIFICATION_TYPE = U
NORAD_CAT_ID   = 67937
ELEMENT_SET_NO = 999
REV_AT_EPOCH   = 307
BSTAR          = .11031081E-2
MEAN_MOTION_DOT = .237066E-2
MEAN_MOTION_DDOT = 0

CCSDS_OMM_VERS = 2.0
CREATION_DATE  = 
ORIGINATOR     = 

OBJECT_NAME    = STARLINK-36371
OBJECT_ID      = 2026-037G
CENTER_NAME    = EARTH
REF_FRAME      = TEME
TIME_SYSTEM    = UTC
MEAN_ELEMENT_THEORY = SGP/SGP4

EPOCH          = 2026-03-08T22:00:01.999584
MEAN_MOTION    = 15.82030816
ECCENTRICITY   = .0001555
INCLINATION    = 42.9989
RA_OF_ASC_NODE = 203.2513
ARG_OF_PERICENTER = 275.9914
MEAN_ANOMALY   = 293.3916

EPHEMERIS_TYPE = 0
CLASSIFICATION_TYPE = U
NORAD_CAT_ID   = 67938
ELEMENT_SET_NO = 999
REV_AT_EPOCH   = 307
BSTAR          = -.10798413E-3
MEAN_MOTION_DOT = -.23225E-3
MEAN_MOTION_DDOT = 0

CCSDS_OMM_VERS = 2.0
CREATION_DATE  = 
ORIGINATOR     = 

OBJECT_NAME    = STARLINK-36246
OBJECT_ID      = 2026-037H
CENTER_NAME    = EARTH
REF_FRAME      = TEME
TIME_SYSTEM    = UTC
MEAN_ELEMENT_THEORY = SGP/SGP4

EPOCH          = 2026-03-08T22:00:01.999584
MEAN_MOTION    = 15.82066373
ECCENTRICITY   = .00022643
INCLINATION    = 42.9990
RA_OF_ASC_NODE = 203.2410
ARG_OF_PERICENTER = 290.9329
MEAN_ANOMALY   = 282.6911

EPHEMERIS_TYPE = 0
CLASSIFICATION_TYPE = U
NORAD_CAT_ID   = 67939
ELEMENT_SET_NO = 999
REV_AT_EPOCH   = 298
BSTAR          = -.3619132E-3
MEAN_MOTION_DOT = -.76261E-3
MEAN_MOTION_DDOT = 0

CCSDS_OMM_VERS = 2.0
CREATION_DATE  = 
ORIGINATOR     = 

OBJECT_NAME    = STARLINK-36907
OBJECT_ID      = 2026-037J
CENTER_NAME    = EARTH
REF_FRAME      = TEME
TIME_SYSTEM    = UTC
MEAN_ELEMENT_THEORY = SGP/SGP4

EPOCH          = 2026-03-08T22:00:01.999584
MEAN_MOTION    = 15.82500667
ECCENTRICITY   = .00014711
INCLINATION    = 42.9989
RA_OF_ASC_NODE = 203.2082
ARG_OF_PERICENTER = 282.4830
MEAN_ANOMALY   = 303.7248

EPHEMERIS_TYPE = 0
CLASSIFICATION_TYPE = U
NORAD_CAT_ID   = 67940
ELEMENT_SET_NO = 999
REV_AT_EPOCH   = 307
BSTAR          = -.33524699E-2
MEAN_MOTION_DOT = -.669554E-2
MEAN_MOTION_DDOT = 0

CCSDS_OMM_VERS = 2.0
CREATION_DATE  = 
ORIGINATOR     = 

OBJECT_NAME    = STARLINK-36927
OBJECT_ID      = 2026-037K
CENTER_NAME    = EARTH
REF_FRAME      = TEME
TIME_SYSTEM    = UTC
MEAN_ELEMENT_THEORY = SGP/SGP4

EPOCH          = 2026-03-08T22:00:01.999584
MEAN_MOTION    = 15.82895367
ECCENTRICITY   = .00015585
INCLINATION    = 42.9990
RA_OF_ASC_NODE = 203.1874
ARG_OF_PERICENTER = 286.6551
MEAN_ANOMALY   = 307.8267

EPHEMERIS_TYPE = 0
CLASSIFICATION_TYPE = U
NORAD_CAT_ID   = 67941
ELEMENT_SET_NO = 999
REV_AT_EPOCH   = 307
BSTAR          = -.56288107E-2
MEAN_MOTION_DOT = -.1109414E-1
MEAN_MOTION_DDOT = 0

CCSDS_OMM_VERS = 2.0
CREATION_DATE  = 
ORIGINATOR     = 

OBJECT_NAME    = STARLINK-36914
OBJECT_ID      = 2026-037L
CENTER_NAME    = EARTH
REF_FRAME      = TEME
TIME_SYSTEM    = UTC
MEAN_ELEMENT_THEORY = SGP/SGP4

EPOCH          = 2026-03-08T22:00:01.999584
MEAN_MOTION    = 15.82116186
ECCENTRICITY   = .00022325
INCLINATION    = 42.9989
RA_OF_ASC_NODE = 203.2297
ARG_OF_PERICENTER = 285.7294
MEAN_ANOMALY   = 292.1425

EPHEMERIS_TYPE = 0
CLASSIFICATION_TYPE = U
NORAD_CAT_ID   = 67942
ELEMENT_SET_NO = 999
REV_AT_EPOCH   = 307
BSTAR          = -.7450047E-3
MEAN_MOTION_DOT = -.155374E-2
MEAN_MOTION_DDOT = 0

CCSDS_OMM_VERS = 2.0
CREATION_DATE  = 
ORIGINATOR     = 

OBJECT_NAME    = STARLINK-36851
OBJECT_ID      = 2026-037M
CENTER_NAME    = EARTH
REF_FRAME      = TEME
TIME_SYSTEM    = UTC
MEAN_ELEMENT_THEORY = SGP/SGP4

EPOCH          = 2026-03-08T22:00:01.999584
MEAN_MOTION    = 15.82297834
ECCENTRICITY   = .00017284
INCLINATION    = 42.9989
RA_OF_ASC_NODE = 203.2192
ARG_OF_PERICENTER = 294.0524
MEAN_ANOMALY   = 288.0058

EPHEMERIS_TYPE = 0
CLASSIFICATION_TYPE = U
NORAD_CAT_ID   = 67943
ELEMENT_SET_NO = 999
REV_AT_EPOCH   = 307
BSTAR          = -.20480698E-2
MEAN_MOTION_DOT = -.417188E-2
MEAN_MOTION_DDOT = 0

CCSDS_OMM_VERS = 2.0
CREATION_DATE  = 
ORIGINATOR     = 

OBJECT_NAME    = STARLINK-36892
OBJECT_ID      = 2026-037N
CENTER_NAME    = EARTH
REF_FRAME      = TEME
TIME_SYSTEM    = UTC
MEAN_ELEMENT_THEORY = SGP/SGP4

EPOCH          = 2026-03-08T22:00:01.999584
MEAN_MOTION    = 15.82699629
ECCENTRICITY   = .00013572
INCLINATION    = 42.9989
RA_OF_ASC_NODE = 203.1986
ARG_OF_PERICENTER = 285.4543
MEAN_ANOMALY   = 304.8999

EPHEMERIS_TYPE = 0
CLASSIFICATION_TYPE = U
NORAD_CAT_ID   = 67944
ELEMENT_SET_NO = 999
REV_AT_EPOCH   = 307
BSTAR          = -.4577673E-2
MEAN_MOTION_DOT = -.898525E-2
MEAN_MOTION_DDOT = 0

CCSDS_OMM_VERS = 2.0
CREATION_DATE  = 
ORIGINATOR     = 

OBJECT_NAME    = STARLINK-36908
OBJECT_ID      = 2026-037P
CENTER_NAME    = EARTH
REF_FRAME      = TEME
TIME_SYSTEM    = UTC
MEAN_ELEMENT_THEORY = SGP/SGP4

EPOCH          = 2026-03-08T22:00:01.999584
MEAN_MOTION    = 15.82933044
ECCENTRICITY   = .00017237
INCLINATION    = 42.9989
RA_OF_ASC_NODE = 203.1769
ARG_OF_PERICENTER = 288.6015
MEAN_ANOMALY   = 310.1251

EPHEMERIS_TYPE = 0
CLASSIFICATION_TYPE = U
NORAD_CAT_ID   = 67945
ELEMENT_SET_NO = 999
REV_AT_EPOCH   = 307
BSTAR          = -.58322326E-2
MEAN_MOTION_DOT = -.1147246E-1
MEAN_MOTION_DDOT = 0

CCSDS_OMM_VERS = 2.0
CREATION_DATE  = 
ORIGINATOR     = 

OBJECT_NAME    = STARLINK-36909
OBJECT_ID      = 2026-037Q
CENTER_NAME    = EARTH
REF_FRAME      = TEME
TIME_SYSTEM    = UTC
MEAN_ELEMENT_THEORY = SGP/SGP4

EPOCH          = 2026-03-08T22:00:01.999584
MEAN_MOTION    = 15.83225619
ECCENTRICITY   = .00013687
INCLINATION    = 42.9988
RA_OF_ASC_NODE = 203.1670
ARG_OF_PERICENTER = 279.2898
MEAN_ANOMALY   = 323.4442

EPHEMERIS_TYPE = 0
CLASSIFICATION_TYPE = U
NORAD_CAT_ID   = 67946
ELEMENT_SET_NO = 999
REV_AT_EPOCH   = 307
BSTAR          = -.703669E-2
MEAN_MOTION_DOT = -.137087E-1
MEAN_MOTION_DDOT = 0

CCSDS_OMM_VERS = 2.0
CREATION_DATE  = 
ORIGINATOR     = 

OBJECT_NAME    = STARLINK-36920
OBJECT_ID      = 2026-037R
CENTER_NAME    = EARTH
REF_FRAME      = TEME
TIME_SYSTEM    = UTC
MEAN_ELEMENT_THEORY = SGP/SGP4

EPOCH          = 2026-03-08T22:00:01.999584
MEAN_MOTION    = 15.83346559
ECCENTRICITY   = .0001326
INCLINATION    = 42.9991
RA_OF_ASC_NODE = 203.1563
ARG_OF_PERICENTER = 283.8237
MEAN_ANOMALY   = 323.0794

EPHEMERIS_TYPE = 0
CLASSIFICATION_TYPE = U
NORAD_CAT_ID   = 67947
ELEMENT_SET_NO = 999
REV_AT_EPOCH   = 307
BSTAR          = -.76461198E-2
MEAN_MOTION_DOT = -.1512006E-1
MEAN_MOTION_DDOT = 0

CCSDS_OMM_VERS = 2.0
CREATION_DATE  = 
ORIGINATOR     = 

OBJECT_NAME    = STARLINK-36873
OBJECT_ID      = 2026-037S
CENTER_NAME    = EARTH
REF_FRAME      = TEME
TIME_SYSTEM    = UTC
MEAN_ELEMENT_THEORY = SGP/SGP4

EPOCH          = 2026-03-08T22:00:01.999584
MEAN_MOTION    = 15.83527883
ECCENTRICITY   = .00013868
INCLINATION    = 42.9990
RA_OF_ASC_NODE = 203.1461
ARG_OF_PERICENTER = 276.4430
MEAN_ANOMALY   = 334.5096

EPHEMERIS_TYPE = 0
CLASSIFICATION_TYPE = U
NORAD_CAT_ID   = 67948
ELEMENT_SET_NO = 999
REV_AT_EPOCH   = 307
BSTAR          = -.80185693E-2
MEAN_MOTION_DOT = -.1588556E-1
MEAN_MOTION_DDOT = 0

